[{"OBJECT_NAME":"HAWK-11C","OBJECT_ID":"2024-247E","EPOCH":"2026-03-09T12:17:35.407968","MEAN_MOTION":15.2884802,"ECCENTRICITY":0.00059001,"INCLINATION":45.0045,"RA_OF_ASC_NODE":114.8762,"ARG_OF_PERICENTER":329.704,"MEAN_ANOMALY":30.3502,"EPHEMERIS_TYPE":0,"CLASSIFICATION_TYPE":"U","NORAD_CAT_ID":62381,"ELEMENT_SET_NO":999,"REV_AT_EPOCH":6774,"BSTAR":0.00033290115,"MEAN_MOTION_DOT":9.223e-5,"MEAN_MOTION_DDOT":0},{"OBJECT_NAME":"STARLINK-35182","OBJECT_ID":"2025-198N","EPOCH":"2026-03-09T22:21:27.627264","MEAN_MOTION":15.3020278,"ECCENTRICITY":9.134e-5,"INCLINATION":53.1574,"RA_OF_ASC_NODE":270.1181,"ARG_OF_PERICENTER":124.5822,"MEAN_ANOMALY":235.5265,"EPHEMERIS_TYPE":0,"CLASSIFICATION_TYPE":"U","NORAD_CAT_ID":65504,"ELEMENT_SET_NO":999,"REV_AT_EPOCH":2865,"BSTAR":0.0010695464,"MEAN_MOTION_DOT":0.00031455,"MEAN_MOTION_DDOT":0}]
